[{"OBJECT_NAME":"STARLINK-3226","OBJECT_ID":"2021-115S","EPOCH":"2026-03-09T22:50:59.737056","MEAN_MOTION":15.08838999,"ECCENTRICITY":0.00014321,"INCLINATION":53.2169,"RA_OF_ASC_NODE":147.9147,"ARG_OF_PERICENTER":89.6651,"MEAN_ANOMALY":270.4505,"EPHEMERIS_TYPE":0,"CLASSIFICATION_TYPE":"U","NORAD_CAT_ID":49740,"ELEMENT_SET_NO":999,"REV_AT_EPOCH":23557,"BSTAR":2.5024873e-5,"MEAN_MOTION_DOT":1.1e-6,"MEAN_MOTION_DDOT":0},{"OBJECT_NAME":"OBJECT G","OBJECT_ID":"2025-292G","EPOCH":"2026-03-09T22:41:34.708704","MEAN_MOTION":15.05879657,"ECCENTRICITY":0.00150455,"INCLINATION":97.6425,"RA_OF_ASC_NODE":145.7524,"ARG_OF_PERICENTER":352.95,"MEAN_ANOMALY":7.1513,"EPHEMERIS_TYPE":0,"CLASSIFICATION_TYPE":"U","NORAD_CAT_ID":66999,"ELEMENT_SET_NO":999,"REV_AT_EPOCH":1351,"BSTAR":0.00047153864,"MEAN_MOTION_DOT":6.807e-5,"MEAN_MOTION_DDOT":0}]
